OBJECT_NAME,OBJECT_ID,EPOCH,MEAN_MOTION,ECCENTRICITY,INCLINATION,RA_OF_ASC_NODE,ARG_OF_PERICENTER,MEAN_ANOMALY,EPHEMERIS_TYPE,CLASSIFICATION_TYPE,NORAD_CAT_ID,ELEMENT_SET_NO,REV_AT_EPOCH,BSTAR,MEAN_MOTION_DOT,MEAN_MOTION_DDOT
GAOFEN-11 01,2018-063A,2026-06-18T06:24:38.101824,15.55314835,.00028934,97.1292,236.1435,353.4491,6.6726,0,U,43585,999,44051,.16413729E-3,.11036E-3,0
ICESAT-2,2018-070A,2026-06-18T06:26:11.253120,15.28298601,.00060651,92.0085,291.2709,104.4457,255.7466,0,U,43613,999,43262,.27088486E-3,.7468E-4,0
HYSIS,2018-096A,2026-06-18T07:03:38.138688,14.78619273,.00017374,97.9840,236.0336,97.8901,262.2507,0,U,43719,999,40758,.91355475E-4,.617E-5,0
KAZSTSAT,2018-099AB,2026-06-18T00:45:21.936096,14.99868645,.0008541,97.4270,200.9213,67.5722,292.6406,0,U,43783,999,41143,.11665456E-3,.1391E-4,0
SAUDISAT 5A,2018-102A,2026-06-18T06:40:25.296384,15.28057540,.00110799,97.3065,230.8380,125.7665,234.4607,0,U,43831,999,41584,.16325381E-3,.4401E-4,0
SAUDISAT 5B,2018-102C,2026-06-18T05:33:00.660960,15.28313855,.00117328,97.3172,233.8638,128.0478,232.1822,0,U,43833,999,41595,.16278188E-3,.4423E-4,0
GAOFEN-10R,2019-066A,2026-06-18T07:13:07.105152,14.83062949,.00067418,98.0498,122.8882,124.5209,235.6642,0,U,44622,999,36254,.11868546E-3,.911E-5,0
CARTOSAT-3,2019-081A,2026-06-18T06:38:52.624608,15.19285619,.00133835,97.4300,231.1267,144.6779,215.5345,0,U,44804,999,36363,.57575978E-4,.1149E-4,0
GAOFEN-12 01,2019-082A,2026-06-18T07:06:40.233600,14.80459336,.00022476,97.8100,175.6465,69.0753,291.0700,0,U,44819,999,35425,.46987019E-4,.309E-5,0
CSG-1,2019-092A,2026-06-18T06:23:48.961824,14.82153973,.00014737,97.8889,352.8533,89.2990,270.8392,0,U,44873,999,35163,.44321411E-4,.301E-5,0
NEMO-HD,2020-061F,2026-06-18T05:32:46.316832,15.44612036,.00022146,97.1916,231.1734,80.0165,280.1334,0,U,46277,999,32214,.19100869E-3,.8802E-4,0
SENTINEL-6A,2020-086A,2026-06-18T06:09:32.189184,12.80929924,.00079368,66.0396,132.8311,270.2175,89.7930,0,U,46984,999,26046,-.25323347E-4,-.67E-6,0
CAS500-1,2021-022A,2026-06-18T07:31:45.885792,15.20143119,.00033374,97.3897,64.5444,294.7560,65.3327,0,U,47932,999,29093,.23810009E-3,.5082E-4,0
GAOFEN-12 02,2021-026A,2026-06-18T07:22:45.943680,14.80296891,.00037512,97.9921,167.4835,217.3147,142.7805,0,U,48079,999,28192,.42948781E-4,.274E-5,0
PLEIADES NEO 3,2021-034A,2026-06-18T08:00:28.763136,14.81674856,.00013646,97.8932,244.0839,88.0979,272.0391,0,U,48268,999,27782,.63599171E-4,.448E-5,0
PLEIADES NEO 4,2021-073E,2026-06-18T07:11:50.129664,14.81678554,.00013491,97.8936,244.0464,87.8512,272.2855,0,U,49070,999,26153,.1325137E-3,.991E-5,0
LANDSAT 9,2021-088A,2026-06-18T03:47:22.960896,14.57097750,.00013152,98.2281,239.3236,86.1021,274.0327,0,U,49260,999,25114,.7006462E-4,.27E-5,0
CSG-2,2022-008A,2026-06-18T07:12:23.664096,14.82155819,.00014796,97.8880,352.8812,83.1899,276.9483,0,U,51444,999,23675,-.13049606E-4,-.156E-5,0
GAOFEN-12 03,2022-069A,2026-06-18T06:28:46.594272,14.80037298,.00020851,97.8279,57.1133,100.0888,260.0560,0,U,52912,999,21477,.12666954E-3,.908E-5,0
SWOT,2022-173A,2026-06-18T06:35:10.822848,14.00169697,.00002536,77.6106,33.8425,89.1497,270.9683,0,U,54754,999,17930,-.1002462E-5,-.4E-7,0
GAOFEN-12 04,2023-123A,2026-06-18T06:52:35.240736,14.80230610,.00017801,97.9122,87.2886,82.5784,277.5631,0,U,57654,999,15279,.11110844E-3,.793E-5,0
PARS 1,2024-039Q,2026-06-18T06:51:12.991392,15.45742952,.00115318,97.4824,150.2399,108.4357,251.8147,0,U,59065,999,12881,.18536906E-3,.8891E-4,0
RESURS-P 4,2024-061A,2026-06-18T07:23:42.806112,15.32136489,.00022597,97.2754,117.1874,125.3498,234.7956,0,U,59371,999,12393,.81210357E-4,.2444E-4,0
LEGION 1,2024-081A,2026-06-18T06:46:58.169280,15.16673444,.00093888,97.5017,247.1278,14.1893,345.9602,0,U,59625,999,11770,.15814118E-3,.3031E-4,0
LEGION 2,2024-081B,2026-06-18T05:55:09.262272,15.16651435,.00106444,97.5018,247.1898,339.8735,20.2077,0,U,59626,999,11770,.14804637E-3,.2832E-4,0
ALOS-4 (DAICHI-4),2024-123A,2026-06-18T05:46:31.885248,14.79469353,.00016327,97.9247,266.3997,97.0630,263.0768,0,U,60182,999,10603,.15742185E-3,.1124E-4,0
LEGION 3,2024-146A,2026-06-18T01:16:57.105408,15.16042915,.00077341,45.0025,25.9093,175.2311,184.8642,0,U,60452,999,10215,.17209703E-3,.3104E-4,0
LEGION 4,2024-146B,2026-06-18T06:06:04.315104,15.16037889,.00136637,45.0012,116.7426,314.0929,45.8825,0,U,60453,999,10103,.19347988E-3,.3526E-4,0
SENTINEL-2C,2024-157A,2026-06-18T03:38:15.331776,14.30818070,.00010061,98.5692,243.9199,82.2963,277.8334,0,U,60989,999,9312,.49790977E-4,.87E-6,0
IONOSFERA-M 1,2024-199A,2026-06-18T05:58:06.019392,14.22754516,.00019728,98.7172,42.4097,108.8229,251.3163,0,U,61735,999,12785,.36146466E-4,.37E-6,0
