GAOFEN-11 01            
1 43585U 18063A   26169.26710766  .00011036  00000+0  16414-3 0  9991
2 43585  97.1292 236.1435 0002893 353.4491   6.6726 15.55314835440513
ICESAT-2                
1 43613U 18070A   26169.26818580  .00007468  00000+0  27088-3 0  9997
2 43613  92.0085 291.2709 0006065 104.4457 255.7466 15.28298601432629
HYSIS                   
1 43719U 18096A   26169.29419142  .00000617  00000+0  91355-4 0  9994
2 43719  97.9840 236.0336 0001737  97.8901 262.2507 14.78619273407584
KAZSTSAT                
1 43783U 18099AB  26169.03150389  .00001391  00000+0  11665-3 0  9990
2 43783  97.4270 200.9213 0008541  67.5722 292.6406 14.99868645411432
SAUDISAT 5A             
1 43831U 18102A   26169.27807056  .00004401  00000+0  16325-3 0  9998
2 43831  97.3065 230.8380 0011079 125.7665 234.4607 15.28057540415840
SAUDISAT 5B             
1 43833U 18102C   26169.23125765  .00004423  00000+0  16278-3 0  9997
2 43833  97.3172 233.8638 0011732 128.0478 232.1822 15.28313855415954
GAOFEN-10R              
1 44622U 19066A   26169.30077668  .00000911  00000+0  11869-3 0  9999
2 44622  98.0498 122.8882 0006741 124.5209 235.6642 14.83062949362544
CARTOSAT-3              
1 44804U 19081A   26169.27699797  .00001149  00000+0  57576-4 0  9997
2 44804  97.4300 231.1267 0013383 144.6779 215.5345 15.19285619363636
GAOFEN-12 01            
1 44819U 19082A   26169.29629900  .00000309  00000+0  46987-4 0  9996
2 44819  97.8100 175.6465 0002247  69.0753 291.0700 14.80459336354253
CSG-1                   
1 44873U 19092A   26169.26653891  .00000301  00000+0  44321-4 0  9992
2 44873  97.8889 352.8533 0001473  89.2990 270.8392 14.82153973351630
NEMO-HD                 
1 46277U 20061F   26169.23109163  .00008802  00000+0  19101-3 0  9996
2 46277  97.1916 231.1734 0002214  80.0165 280.1334 15.44612036322146
SENTINEL-6A             
1 46984U 20086A   26169.25662256 -.00000067  00000+0 -25323-4 0  9998
2 46984  66.0396 132.8311 0007936 270.2175  89.7930 12.80929924260461
CAS500-1                
1 47932U 21022A   26169.31372553  .00005082  00000+0  23810-3 0  9996
2 47932  97.3897  64.5444 0003337 294.7560  65.3327 15.20143119290932
GAOFEN-12 02            
1 48079U 21026A   26169.30747620  .00000274  00000+0  42949-4 0  9996
2 48079  97.9921 167.4835 0003751 217.3147 142.7805 14.80296891281929
PLEIADES NEO 3          
1 48268U 21034A   26169.33366624  .00000448  00000+0  63599-4 0  9996
2 48268  97.8932 244.0839 0001364  88.0979 272.0391 14.81674856277823
PLEIADES NEO 4          
1 49070U 21073E   26169.29988576  .00000991  00000+0  13251-3 0  9994
2 49070  97.8936 244.0464 0001349  87.8512 272.2855 14.81678554261533
LANDSAT 9               
1 49260U 21088A   26169.15790464  .00000270  00000+0  70065-4 0  9990
2 49260  98.2281 239.3236 0001315  86.1021 274.0327 14.57097750251142
CSG-2                   
1 51444U 22008A   26169.30027389 -.00000156  00000+0 -13050-4 0  9992
2 51444  97.8880 352.8812 0001479  83.1899 276.9483 14.82155819236754
GAOFEN-12 03            
1 52912U 22069A   26169.26998373  .00000908  00000+0  12667-3 0  9990
2 52912  97.8279  57.1133 0002085 100.0888 260.0560 14.80037298214775
SWOT                    
1 54754U 22173A   26169.27443082 -.00000004  00000+0 -10025-5 0  9992
2 54754  77.6106  33.8425 0000253  89.1497 270.9683 14.00169697179305
GAOFEN-12 04            
1 57654U 23123A   26169.28651899  .00000793  00000+0  11111-3 0  9996
2 57654  97.9122  87.2886 0001780  82.5784 277.5631 14.80230610152798
PARS 1                  
1 59065U 24039Q   26169.28556703  .00008891  00000+0  18537-3 0  9995
2 59065  97.4824 150.2399 0011531 108.4357 251.8147 15.45742952128811
RESURS-P 4              
1 59371U 24061A   26169.30813433  .00002444  00000+0  81210-4 0  9996
2 59371  97.2754 117.1874 0002259 125.3498 234.7956 15.32136489123936
LEGION 1                
1 59625U 24081A   26169.28261770  .00003031  00000+0  15814-3 0  9997
2 59625  97.5017 247.1278 0009388  14.1893 345.9602 15.16673444117709
LEGION 2                
1 59626U 24081B   26169.24663498  .00002832  00000+0  14805-3 0  9994
2 59626  97.5018 247.1898 0010644 339.8735  20.2077 15.16651435117703
ALOS-4 (DAICHI-4)       
1 60182U 24123A   26169.24064682  .00001124  00000+0  15742-3 0  9994
2 60182  97.9247 266.3997 0001632  97.0630 263.0768 14.79469353106039
LEGION 3                
1 60452U 24146A   26169.05343872  .00003104  00000+0  17210-3 0  9991
2 60452  45.0025  25.9093 0007734 175.2311 184.8642 15.16042915102150
LEGION 4                
1 60453U 24146B   26169.25421661  .00003526  00000+0  19348-3 0  9999
2 60453  45.0012 116.7426 0013663 314.0929  45.8825 15.16037889101031
SENTINEL-2C             
1 60989U 24157A   26169.15156634  .00000087  00000+0  49791-4 0  9994
2 60989  98.5692 243.9199 0001006  82.2963 277.8334 14.30818070 93128
IONOSFERA-M 1           
1 61735U 24199A   26169.24868078  .00000037  00000+0  36146-4 0  9997
2 61735  98.7172  42.4097 0001972 108.8229 251.3163 14.22754516127854
